building_address,clue_small_area,parking_type,parking_spaces,longitude,latitude,location,street_address,suburb,postcode
Spencer Outlet Centre 163-261 Spencer Street DOCKLANDS VIC 3008,Docklands,Commercial,583,144.95056413125002,-37.81450895670129,"-37.81450895670129, 144.95056413125002",Spencer Outlet Centre 163-261 Spencer Street,DOCKLANDS,3008
396-416 Docklands Drive DOCKLANDS VIC 3008,Docklands,Commercial,238,144.94004822717176,-37.8133266242,"-37.8133266242, 144.94004822717176",396-416 Docklands Drive,DOCKLANDS,3008
The Albert 158 Albert Street EAST MELBOURNE VIC 3002,East Melbourne,Commercial,60,144.9856242014758,-37.81004732904999,"-37.81004732904999, 144.9856242014758",The Albert 158 Albert Street EAST,MELBOURNE,3002
100-110 Kings Way SOUTHBANK VIC 3006,Southbank,Commercial,15,144.96166445403145,-37.8279496529,"-37.8279496529, 144.96166445403145",100-110 Kings Way,SOUTHBANK,3006
QV Retail & Parking 221 Little Lonsdale Street MELBOURNE VIC 3000,Melbourne (CBD),Commercial,1150,144.965725053002,-37.81067861705,"-37.81067861705, 144.965725053002",QV Retail & Parking 221 Little Lonsdale Street,MELBOURNE,3000
Queen Victoria Market Car Park Queen Victoria Market 391 Queen Street MELBOURNE VIC 3000,Melbourne (CBD),Commercial,564,144.9576272223,-37.80783257422127,"-37.807832574221266, 144.9576272223",Queen Victoria Market Car Park Queen Victoria Market 391 Queen Street,MELBOURNE,3000
58-64 Franklin Street MELBOURNE VIC 3000,Melbourne (CBD),Commercial,360,144.96081552815,-37.80741705045211,"-37.80741705045211, 144.96081552815",58-64 Franklin Street,MELBOURNE,3000
Carpark Melbourne University 220 Berkeley Street CARLTON VIC 3053,Carlton,Commercial,1136,144.96070112606373,-37.8002509946,"-37.8002509946, 144.96070112606373",Carpark Melbourne University 220 Berkeley Street,CARLTON,3053
2 Riverside Quay SOUTHBANK VIC 3006,Southbank,Commercial,575,144.96329106844613,-37.82131723165,"-37.82131723165, 144.96329106844613",2 Riverside Quay,SOUTHBANK,3006
28 Freshwater Place SOUTHBANK VIC 3006,Southbank,Commercial,247,144.96228959535927,-37.8226720979,"-37.8226720979, 144.96228959535927",28 Freshwater Place,SOUTHBANK,3006
Royal Womens Hospital 18-22 Flemington Road PARKVILLE VIC 3050,Parkville,Commercial,958,144.9550028866969,-37.7988527894,"-37.7988527894, 144.9550028866969",Royal Womens Hospital 18-22 Flemington Road,PARKVILLE,3050
720-750 Collins Street DOCKLANDS VIC 3008,Docklands,Commercial,430,144.94933375867254,-37.81999948275,"-37.81999948275, 144.94933375867254",720-750 Collins Street,DOCKLANDS,3008
364-378 Docklands Drive DOCKLANDS VIC 3008,Docklands,Commercial,144,144.9418709101883,-37.8128637798,"-37.8128637798, 144.9418709101883",364-378 Docklands Drive,DOCKLANDS,3008
452-470 Flinders Street MELBOURNE VIC 3000,Melbourne (CBD),Commercial,296,144.95859968539995,-37.81946525809167,"-37.81946525809167, 144.95859968539995",452-470 Flinders Street,MELBOURNE,3000
11-37 Exhibition Street MELBOURNE VIC 3000,Melbourne (CBD),Commercial,200,144.9717264012,-37.815461267220016,"-37.815461267220016, 144.9717264012",11-37 Exhibition Street,MELBOURNE,3000
359-373 Collins Street MELBOURNE VIC 3000,Melbourne (CBD),Commercial,265,144.96244246255,-37.81728184554878,"-37.81728184554878, 144.96244246255",359-373 Collins Street,MELBOURNE,3000
233-239 Collins Street MELBOURNE VIC 3000,Melbourne (CBD),Commercial,75,144.96610328424998,-37.81599220386811,"-37.81599220386811, 144.96610328424998",233-239 Collins Street,MELBOURNE,3000
58-66 La Trobe Street MELBOURNE VIC 3000,Melbourne (CBD),Commercial,23,144.9669434142,-37.80829650360967,"-37.80829650360967, 144.9669434142",58-66 La Trobe Street,MELBOURNE,3000
300-316 Flinders Street MELBOURNE VIC 3000,Melbourne (CBD),Commercial,574,144.96399584413615,-37.81805763655,"-37.818057636549995, 144.96399584413615",300-316 Flinders Street,MELBOURNE,3000
114-128 Flinders Street MELBOURNE VIC 3000,Melbourne (CBD),Commercial,1275,144.970755226,-37.81594139354704,"-37.81594139354704, 144.970755226",114-128 Flinders Street,MELBOURNE,3000
Podium Rialto 525 Collins Street MELBOURNE VIC 3000,Melbourne (CBD),Commercial,536,144.95747025505,-37.81866072318769,"-37.81866072318769, 144.95747025505",Podium Rialto 525 Collins Street,MELBOURNE,3000
Grand Hyatt Melbourne Retail 121-131 Collins Street MELBOURNE VIC 3000,Melbourne (CBD),Commercial,620,144.96980796645528,-37.81511565165,"-37.81511565165, 144.96980796645528",Grand Hyatt Melbourne Retail 121-131 Collins Street,MELBOURNE,3000
Collins Place 45 Collins Street MELBOURNE VIC 3000,Melbourne (CBD),Commercial,552,144.97262557265284,-37.81430518125,"-37.81430518125, 144.97262557265284",Collins Place 45 Collins Street,MELBOURNE,3000
12-20 Flinders Lane MELBOURNE VIC 3000,Melbourne (CBD),Commercial,126,144.97357288295,-37.81424187562226,"-37.81424187562226, 144.97357288295",12-20 Flinders Lane,MELBOURNE,3000
130-148 William Street MELBOURNE VIC 3000,Melbourne (CBD),Commercial,232,144.95890542796008,-37.81601087305,"-37.81601087305, 144.95890542796008",130-148 William Street,MELBOURNE,3000
185-199 Queen Street MELBOURNE VIC 3000,Melbourne (CBD),Commercial,98,144.95996879856824,-37.81428630535,"-37.814286305349995, 144.95996879856824",185-199 Queen Street,MELBOURNE,3000
378-392 La Trobe Street MELBOURNE VIC 3000,Melbourne (CBD),Commercial,262,144.95805069635,-37.81091259571215,"-37.81091259571215, 144.95805069635",378-392 La Trobe Street,MELBOURNE,3000
382-406 Queen Street MELBOURNE VIC 3000,Melbourne (CBD),Commercial,548,144.95868352050002,-37.80943323220744,"-37.80943323220744, 144.95868352050002",382-406 Queen Street,MELBOURNE,3000
Melbourne Convention Centre Carpark 671-701 Flinders Street DOCKLANDS VIC 3008,Docklands,Commercial,588,144.9521680991574,-37.8223274234,"-37.8223274234, 144.9521680991574",Melbourne Convention Centre Carpark 671-701 Flinders Street,DOCKLANDS,3008
368-386 Lygon Street CARLTON VIC 3053,Carlton,Commercial,154,144.96814846597175,-37.79803960305,"-37.79803960305, 144.96814846597175",368-386 Lygon Street,CARLTON,3053
RMIT Village 5-17 Flemington Road NORTH MELBOURNE VIC 3051,North Melbourne,Commercial,200,144.95584688675,-37.801435964981415,"-37.801435964981415, 144.95584688675",RMIT Village 5-17 Flemington Road NORTH,MELBOURNE,3051
312-318 St Kilda Road SOUTHBANK VIC 3006,Southbank,Commercial,240,144.97068550387235,-37.82909021195,"-37.82909021195, 144.97068550387235",312-318 St Kilda Road,SOUTHBANK,3006
Kenneth Myer Building 144 30 Royal Parade PARKVILLE VIC 3010,Parkville,Commercial,140,144.96120873245002,-37.79677209594333,"-37.79677209594333, 144.96120873245002",Kenneth Myer Building 144 30 Royal Parade,PARKVILLE,3010
410-418 Albert Street EAST MELBOURNE VIC 3002,East Melbourne,Commercial,324,144.97709337195,-37.80934287981486,"-37.80934287981486, 144.97709337195",410-418 Albert Street EAST,MELBOURNE,3002
Crown Entertainment Complex 8 Whiteman Street SOUTHBANK VIC 3006,Southbank,Commercial,1390,144.95833415319856,-37.8231615915,"-37.8231615915, 144.95833415319856",Crown Entertainment Complex 8 Whiteman Street,SOUTHBANK,3006
Crown Casino Carpark 25-29 Clarke Street SOUTHBANK VIC 3006,Southbank,Commercial,3100,144.95844221541506,-37.82540402895,"-37.82540402895, 144.95844221541506",Crown Casino Carpark 25-29 Clarke Street,SOUTHBANK,3006
84-94 Flinders Street MELBOURNE VIC 3000,Melbourne (CBD),Commercial,38,144.97168700995002,-37.815948369203376,"-37.815948369203376, 144.97168700995002",84-94 Flinders Street,MELBOURNE,3000
1-9 Collins Street MELBOURNE VIC 3000,Melbourne (CBD),Commercial,18,144.97371404676704,-37.81372275735,"-37.81372275735, 144.97371404676704",1-9 Collins Street,MELBOURNE,3000
106-120 Collins Street MELBOURNE VIC 3000,Melbourne (CBD),Commercial,327,144.9693156901375,-37.81400034895,"-37.81400034895, 144.9693156901375",106-120 Collins Street,MELBOURNE,3000
Galleria 385 Bourke Street MELBOURNE VIC 3000,Melbourne (CBD),Commercial,213,144.96292154949998,-37.81492943947073,"-37.81492943947073, 144.96292154949998",Galleria 385 Bourke Street,MELBOURNE,3000
542-546 Little Bourke Street MELBOURNE VIC 3000,Melbourne (CBD),Commercial,373,144.95639987149858,-37.81479834825,"-37.814798348249994, 144.95639987149858",542-546 Little Bourke Street,MELBOURNE,3000
496-508 La Trobe Street WEST MELBOURNE VIC 3003,West Melbourne (Residential),Commercial,63,144.95206408956284,-37.81258098235,"-37.81258098235, 144.95206408956284",496-508 La Trobe Street WEST,MELBOURNE,3003
298-336 Victoria Parade EAST MELBOURNE VIC 3002,East Melbourne,Commercial,350,144.98225335572846,-37.80945759425,"-37.80945759425, 144.98225335572846",298-336 Victoria Parade EAST,MELBOURNE,3002
31-49 Moray Street SOUTHBANK VIC 3006,Southbank,Commercial,180,144.96140121047955,-37.8276216315,"-37.8276216315, 144.96140121047955",31-49 Moray Street,SOUTHBANK,3006
18 Hoff Boulevard SOUTHBANK VIC 3006,Southbank,Commercial,117,144.96357357795,-37.82572543353542,"-37.82572543353542, 144.96357357795",18 Hoff Boulevard,SOUTHBANK,3006
The Primrose Potter Australian Ballet Centre 2-6 Kavanagh Street SOUTHBANK VIC 3006,Southbank,Commercial,436,144.96735978465,-37.8219694093844,"-37.821969409384394, 144.96735978465",The Primrose Potter Australian Ballet Centre 2-6 Kavanagh Street,SOUTHBANK,3006
15-33 William Street MELBOURNE VIC 3000,Melbourne (CBD),Commercial,300,144.9591980656,-37.81929390624698,"-37.81929390624698, 144.9591980656",15-33 William Street,MELBOURNE,3000
194-200 Bourke Street MELBOURNE VIC 3000,Melbourne (CBD),Commercial,130,144.9672689638,-37.812419039991525,"-37.812419039991525, 144.9672689638",194-200 Bourke Street,MELBOURNE,3000
131-137 Lonsdale Street MELBOURNE VIC 3000,Melbourne (CBD),Commercial,56,144.96851480934998,-37.810927165145536,"-37.810927165145536, 144.96851480934998",131-137 Lonsdale Street,MELBOURNE,3000
33-61 Cathedral Place EAST MELBOURNE VIC 3002,East Melbourne,Commercial,300,144.97650978322758,-37.8113117177,"-37.8113117177, 144.97650978322758",33-61 Cathedral Place EAST,MELBOURNE,3002
415-421 St Kilda Road MELBOURNE VIC 3004,Melbourne (Remainder),Commercial,98,144.97704367873666,-37.83774643605,"-37.83774643605, 144.97704367873666",415-421 St Kilda Road,MELBOURNE,3004
South Wharf Carpark 15 Convention Centre Place SOUTH WHARF VIC 3006,Southbank,Commercial,1150,144.95231929429832,-37.8254299844,"-37.8254299844, 144.95231929429832",South Wharf Carpark 15 Convention Centre Place SOUTH,WHARF,3006
EXO Apartments 33-61 Merchant Street DOCKLANDS VIC 3008,Docklands,Commercial,573,144.94368187183846,-37.8209284493,"-37.8209284493, 144.94368187183846",EXO Apartments 33-61 Merchant Street,DOCKLANDS,3008
170-190 Russell Street MELBOURNE VIC 3000,Melbourne (CBD),Commercial,409,144.96813936745,-37.81199328016522,"-37.81199328016522, 144.96813936745",170-190 Russell Street,MELBOURNE,3000
The Urban Workshop 32-54 Lonsdale Street MELBOURNE VIC 3000,Melbourne (CBD),Commercial,148,144.97072895345,-37.809196151079576,"-37.809196151079576, 144.97072895345",The Urban Workshop 32-54 Lonsdale Street,MELBOURNE,3000
694-704 Collins Street DOCKLANDS VIC 3008,Docklands,Commercial,265,144.9508556217363,-37.81948865975,"-37.81948865975, 144.9508556217363",694-704 Collins Street,DOCKLANDS,3008
816-828 Bourke Street DOCKLANDS VIC 3008,Docklands,Commercial,40,144.94397088329998,-37.81926604045295,"-37.819266040452945, 144.94397088329998",816-828 Bourke Street,DOCKLANDS,3008
1-17 Flinders Street MELBOURNE VIC 3000,Melbourne (CBD),Commercial,60,144.97466381715202,-37.8155608131,"-37.8155608131, 144.97466381715202",1-17 Flinders Street,MELBOURNE,3000
522-552 Flinders Lane MELBOURNE VIC 3000,Melbourne (CBD),Commercial,1001,144.95592137838787,-37.81942771845,"-37.81942771845, 144.95592137838787",522-552 Flinders Lane,MELBOURNE,3000
371-389 La Trobe Street MELBOURNE VIC 3000,Melbourne (CBD),Commercial,447,144.95813764184368,-37.81163984695,"-37.81163984695, 144.95813764184368",371-389 La Trobe Street,MELBOURNE,3000
296-310 La Trobe Street MELBOURNE VIC 3000,Melbourne (CBD),Commercial,531,144.96036639523584,-37.8099814724,"-37.8099814724, 144.96036639523584",296-310 La Trobe Street,MELBOURNE,3000
6-30 Tyne Street CARLTON VIC 3053,Carlton,Commercial,215,144.96668715045,-37.797672571415774,"-37.797672571415774, 144.96668715045",6-30 Tyne Street,CARLTON,3053
325-341 Victoria Street WEST MELBOURNE VIC 3003,West Melbourne (Residential),Commercial,48,144.95027529882103,-37.80556304145,"-37.80556304145, 144.95027529882103",325-341 Victoria Street WEST,MELBOURNE,3003
14-20 Blackwood Street NORTH MELBOURNE VIC 3051,North Melbourne,Commercial,331,144.95515912450102,-37.80175093425,"-37.80175093425, 144.95515912450102",14-20 Blackwood Street NORTH,MELBOURNE,3051
NGV International 130-200 St Kilda Road SOUTHBANK VIC 3006,Southbank,Commercial,850,144.96862690571044,-37.8227379235,"-37.8227379235, 144.96862690571044",NGV International 130-200 St Kilda Road,SOUTHBANK,3006
419-429 Collins Street MELBOURNE VIC 3000,Melbourne (CBD),Commercial,33,144.9606526789389,-37.8175282385,"-37.8175282385, 144.9606526789389",419-429 Collins Street,MELBOURNE,3000
520-536 Little Collins Street MELBOURNE VIC 3000,Melbourne (CBD),Commercial,41,144.95710995453825,-37.8168797463,"-37.8168797463, 144.95710995453825",520-536 Little Collins Street,MELBOURNE,3000
Council House 196-212 Little Collins Street MELBOURNE VIC 3000,Melbourne (CBD),Commercial,109,144.96715296055,-37.8139012557612,"-37.813901255761195, 144.96715296055",Council House 196-212 Little Collins Street,MELBOURNE,3000
22-32 Little Collins Street MELBOURNE VIC 3000,Melbourne (CBD),Commercial,25,144.9725479173095,-37.8124312284,"-37.8124312284, 144.9725479173095",22-32 Little Collins Street,MELBOURNE,3000
458-468 Lonsdale Street MELBOURNE VIC 3000,Melbourne (CBD),Commercial,294,144.95835075315,-37.8130565380355,"-37.8130565380355, 144.95835075315",458-468 Lonsdale Street,MELBOURNE,3000
64-78 City Road SOUTHBANK VIC 3006,Southbank,Commercial,667,144.96513500546604,-37.82175408265,"-37.82175408265, 144.96513500546604",64-78 City Road,SOUTHBANK,3006
715-727 Bourke Street DOCKLANDS VIC 3008,Docklands,Commercial,300,144.95024501889998,-37.81865753516887,"-37.81865753516887, 144.95024501889998",715-727 Bourke Street,DOCKLANDS,3008
2-92 Rebecca Walk MELBOURNE VIC 3000,Melbourne (CBD),Commercial,50,144.95682839870273,-37.82120539785,"-37.82120539785, 144.95682839870273",2-92 Rebecca Walk,MELBOURNE,3000
545-557 Flinders Street MELBOURNE VIC 3000,Melbourne (CBD),Commercial,139,144.9565137522286,-37.8209790437,"-37.8209790437, 144.9565137522286",545-557 Flinders Street,MELBOURNE,3000
317-323 Flinders Lane MELBOURNE VIC 3000,Melbourne (CBD),Commercial,55,144.96375568035,-37.81773165451008,"-37.81773165451008, 144.96375568035",317-323 Flinders Lane,MELBOURNE,3000
111-129 Queen Street MELBOURNE VIC 3000,Melbourne (CBD),Commercial,69,144.96063602022025,-37.81581228435,"-37.81581228435, 144.96063602022025",111-129 Queen Street,MELBOURNE,3000
562-574 Bourke Street MELBOURNE VIC 3000,Melbourne (CBD),Commercial,445,144.9567555518,-37.81550951792444,"-37.81550951792444, 144.9567555518",562-574 Bourke Street,MELBOURNE,3000
68-90 Victoria Parade EAST MELBOURNE VIC 3002,East Melbourne,Commercial,500,144.97428913695165,-37.80856172415,"-37.80856172415, 144.97428913695165",68-90 Victoria Parade EAST,MELBOURNE,3002
Southgate 3 Southgate Avenue SOUTHBANK VIC 3006,Southbank,Commercial,581,144.96630308550658,-37.8207182429,"-37.8207182429, 144.96630308550658",Southgate 3 Southgate Avenue,SOUTHBANK,3006
Alfred Hospital 23-99 Commercial Road PRAHRAN VIC 3181,Melbourne (Remainder),Commercial,1729,144.98281620023937,-37.8465702986,"-37.8465702986, 144.98281620023937",Alfred Hospital 23-99 Commercial Road,PRAHRAN,3181
Victorian Comprehensive Cancer Centre 301-327 Grattan Street MELBOURNE VIC 3000,Parkville,Commercial,320,144.95667136729958,-37.80018542705,"-37.80018542705, 144.95667136729958",Victorian Comprehensive Cancer Centre 301-327 Grattan Street,MELBOURNE,3000
208-226 Harbour Esplanade DOCKLANDS VIC 3008,Docklands,Commercial,134,144.9451557020928,-37.81315833975,"-37.81315833975, 144.9451557020928",208-226 Harbour Esplanade,DOCKLANDS,3008
141-165 Collins Street MELBOURNE VIC 3000,Melbourne (CBD),Commercial,350,144.96876152725,-37.81545151804356,"-37.81545151804356, 144.96876152725",141-165 Collins Street,MELBOURNE,3000
601-611 Little Collins Street MELBOURNE VIC 3000,Melbourne (CBD),Commercial,55,144.95490436805,-37.81802842820203,"-37.81802842820203, 144.95490436805",601-611 Little Collins Street,MELBOURNE,3000
34-60 Little Collins Street MELBOURNE VIC 3000,Melbourne (CBD),Commercial,932,144.97196176914562,-37.81237405065,"-37.81237405065, 144.97196176914562",34-60 Little Collins Street,MELBOURNE,3000
The Paramount 100-116 Bourke Street MELBOURNE VIC 3000,Melbourne (CBD),Commercial,418,144.96976088474997,-37.81172679558099,"-37.81172679558099, 144.96976088474997",The Paramount 100-116 Bourke Street,MELBOURNE,3000
217-231 Lonsdale Street MELBOURNE VIC 3000,Melbourne (CBD),Commercial,390,144.96586746042516,-37.8117993249,"-37.8117993249, 144.96586746042516",217-231 Lonsdale Street,MELBOURNE,3000
Melbourne Central 183-265 La Trobe Street MELBOURNE VIC 3000,Melbourne (CBD),Commercial,722,144.96283887063584,-37.8109017475,"-37.8109017475, 144.96283887063584",Melbourne Central 183-265 La Trobe Street,MELBOURNE,3000
383-405 King Street WEST MELBOURNE VIC 3003,West Melbourne (Residential),Commercial,54,144.95292445135,-37.811107628597085,"-37.811107628597085, 144.95292445135",383-405 King Street WEST,MELBOURNE,3003
Carlton Clocktower Complex 247-253 Drummond Street CARLTON VIC 3053,Carlton,Commercial,244,144.96780654925894,-37.7998239881,"-37.7998239881, 144.96780654925894",Carlton Clocktower Complex 247-253 Drummond Street,CARLTON,3053
376-388 Flinders Street MELBOURNE VIC 3000,Melbourne (CBD),Commercial,315,144.9615539836168,-37.81884131955,"-37.81884131955, 144.9615539836168",376-388 Flinders Street,MELBOURNE,3000
613-639 Little Collins Street MELBOURNE VIC 3000,Melbourne (CBD),Commercial,300,144.95436479768804,-37.81818416285,"-37.81818416285, 144.95436479768804",613-639 Little Collins Street,MELBOURNE,3000
479-495 La Trobe Street MELBOURNE VIC 3000,Melbourne (CBD),Commercial,208,144.9549226031,-37.81270723965592,"-37.81270723965592, 144.9549226031",479-495 La Trobe Street,MELBOURNE,3000
"Carpark Rear 280-318 William Street, MELBOURNE VIC 3000",Melbourne (CBD),Commercial,152,144.9573593037722,-37.8120900551,"-37.8120900551, 144.9573593037722","Carpark Rear 280-318 William Street,",MELBOURNE,3000
MU Eastern Precinct Carpark 375 Cardigan Street CARLTON VIC 3053,Carlton,Commercial,722,144.96573328979514,-37.79750931995,"-37.797509319949995, 144.96573328979514",MU Eastern Precinct Carpark 375 Cardigan Street,CARLTON,3053
96 Grattan Street CARLTON VIC 3053,Carlton,Commercial,600,144.96602516349998,-37.79968042849998,"-37.79968042849998, 144.96602516349998",96 Grattan Street,CARLTON,3053
Melbourne Museum 11 Nicholson Street CARLTON VIC 3053,Carlton,Commercial,848,144.97162875087292,-37.803974460350005,"-37.803974460350005, 144.97162875087292",Melbourne Museum 11 Nicholson Street,CARLTON,3053
Arden Plaza & Offices 111-133 Canning Street NORTH MELBOURNE VIC 3051,North Melbourne,Commercial,328,144.9406914138578,-37.7962407086,"-37.7962407086, 144.9406914138578",Arden Plaza & Offices 111-133 Canning Street NORTH,MELBOURNE,3051
44-60 Curzon Street NORTH MELBOURNE VIC 3051,North Melbourne,Commercial,38,144.94838149115,-37.80336810915098,"-37.80336810915098, 144.94838149115",44-60 Curzon Street NORTH,MELBOURNE,3051
100 Batman Avenue MELBOURNE VIC 3004,Melbourne (Remainder),Commercial,82,144.9753282174408,-37.8177340303,"-37.8177340303, 144.9753282174408",100 Batman Avenue,MELBOURNE,3004
553 St Kilda Road MELBOURNE VIC 3004,Melbourne (Remainder),Commercial,183,144.98037831863508,-37.8468529988,"-37.8468529988, 144.98037831863508",553 St Kilda Road,MELBOURNE,3004
Southern Cross Station 85-161 Spencer Street DOCKLANDS VIC 3008,Docklands,Commercial,154,144.95222688975,-37.81841172740791,"-37.81841172740791, 144.95222688975",Southern Cross Station 85-161 Spencer Street,DOCKLANDS,3008
The Podium Building 2-24 Waterview Walk DOCKLANDS VIC 3008,Docklands,Commercial,113,144.94799200433602,-37.8193808719,"-37.8193808719, 144.94799200433602",The Podium Building 2-24 Waterview Walk,DOCKLANDS,3008
Aquavista 397-407 Docklands Drive DOCKLANDS VIC 3008,Docklands,Commercial,329,144.9402116114489,-37.81428809645,"-37.81428809645, 144.9402116114489",Aquavista 397-407 Docklands Drive,DOCKLANDS,3008
NW Building 23-37 Star Crescent DOCKLANDS VIC 3008,Docklands,Commercial,680,144.93799833512347,-37.8132875139,"-37.8132875139, 144.93799833512347",NW Building 23-37 Star Crescent,DOCKLANDS,3008
222-260 Elizabeth Street MELBOURNE VIC 3000,Melbourne (CBD),Commercial,205,144.9628888512,-37.812700236361295,"-37.812700236361295, 144.9628888512",222-260 Elizabeth Street,MELBOURNE,3000
Mantra On Russell 210-222 Russell Street MELBOURNE VIC 3000,Melbourne (CBD),Commercial,427,144.9679605734296,-37.81133821925,"-37.81133821925, 144.9679605734296",Mantra On Russell 210-222 Russell Street,MELBOURNE,3000
535 Little Lonsdale Street MELBOURNE VIC 3000,Melbourne (CBD),Commercial,800,144.95600158025002,-37.81346261063083,"-37.81346261063083, 144.95600158025002",535 Little Lonsdale Street,MELBOURNE,3000
265-281 Faraday Street CARLTON VIC 3053,Carlton,Commercial,460,144.965334539754,-37.7988985808,"-37.7988985808, 144.965334539754",265-281 Faraday Street,CARLTON,3053
204-218 Lygon Street CARLTON VIC 3053,Carlton,Commercial,408,144.9671430803723,-37.80218764015,"-37.802187640149995, 144.9671430803723",204-218 Lygon Street,CARLTON,3053
RMIT Building 91 110-120 Victoria Street CARLTON VIC 3053,Carlton,Commercial,200,144.96369848185,-37.8063242669881,"-37.8063242669881, 144.96369848185",RMIT Building 91 110-120 Victoria Street,CARLTON,3053
94-106 Grey Street EAST MELBOURNE VIC 3002,East Melbourne,Commercial,450,144.98515312732948,-37.8114270487,"-37.8114270487, 144.98515312732948",94-106 Grey Street EAST,MELBOURNE,3002
National Tennis Centre Melbourne Park 55 Olympic Boulevard MELBOURNE VIC 3004,Melbourne (Remainder),Commercial,909,144.97903846552452,-37.8213403937,"-37.8213403937, 144.97903846552452",National Tennis Centre Melbourne Park 55 Olympic Boulevard,MELBOURNE,3004
127-129 Kavanagh Street SOUTHBANK VIC 3006,Southbank,Commercial,60,144.96202856798214,-37.8266002264,"-37.8266002264, 144.96202856798214",127-129 Kavanagh Street,SOUTHBANK,3006
517 St Kilda Road MELBOURNE VIC 3004,Melbourne (Remainder),Commercial,8,144.97928845221116,-37.844592578450005,"-37.844592578450005, 144.97928845221116",517 St Kilda Road,MELBOURNE,3004
Melbourne Exhibition Centre 2 Clarendon Street SOUTH WHARF VIC 3006,Southbank,Commercial,1696,144.95231929429832,-37.8254299844,"-37.8254299844, 144.95231929429832",Melbourne Exhibition Centre 2 Clarendon Street SOUTH,WHARF,3006
112-168 Normanby Road SOUTH WHARF VIC 3006,Southbank,Commercial,688,144.94993759230016,-37.8268072741,"-37.8268072741, 144.94993759230016",112-168 Normanby Road SOUTH,WHARF,3006
The District Docklands East Car Park 50-94 Waterfront Way DOCKLANDS VIC 3008,Docklands,Commercial,2236,144.93944446094207,-37.81215074975,"-37.81215074975, 144.93944446094207",The District Docklands East Car Park 50-94 Waterfront Way,DOCKLANDS,3008
Carpark Federation Square 2 Swanston Street MELBOURNE VIC 3000,Melbourne (CBD),Commercial,450,144.96994164279243,-37.817777826050005,"-37.817777826050005, 144.96994164279243",Carpark Federation Square 2 Swanston Street,MELBOURNE,3000
472-482 Flinders Street MELBOURNE VIC 3000,Melbourne (CBD),Commercial,330,144.95827113270002,-37.819727590225824,"-37.819727590225824, 144.95827113270002",472-482 Flinders Street,MELBOURNE,3000
16-26 Bond Street MELBOURNE VIC 3000,Melbourne (CBD),Commercial,461,144.9630578698032,-37.81814585805,"-37.81814585805, 144.9630578698032",16-26 Bond Street,MELBOURNE,3000
388-394 Flinders Lane MELBOURNE VIC 3000,Melbourne (CBD),Commercial,38,144.96105818865,-37.81799063633014,"-37.81799063633014, 144.96105818865",388-394 Flinders Lane,MELBOURNE,3000
344-350 Collins Street MELBOURNE VIC 3000,Melbourne (CBD),Commercial,65,144.96268877625,-37.81601648208985,"-37.81601648208985, 144.96268877625",344-350 Collins Street,MELBOURNE,3000
150-154 Collins Street MELBOURNE VIC 3000,Melbourne (CBD),Commercial,61,144.9681766079,-37.81418558687795,"-37.81418558687795, 144.9681766079",150-154 Collins Street,MELBOURNE,3000
174-192 Exhibition Street MELBOURNE VIC 3000,Melbourne (CBD),Commercial,150,144.97059788809,-37.8112189809,"-37.8112189809, 144.97059788809",174-192 Exhibition Street,MELBOURNE,3000
548-558 Little Bourke Street MELBOURNE VIC 3000,Melbourne (CBD),Commercial,335,144.95594150995,-37.814921240455575,"-37.814921240455575, 144.95594150995",548-558 Little Bourke Street,MELBOURNE,3000
322 Lonsdale Street MELBOURNE VIC 3000,Melbourne (CBD),Commercial,312,144.96260342635097,-37.8115766472,"-37.8115766472, 144.96260342635097",322 Lonsdale Street,MELBOURNE,3000
333-351 Exhibition Street MELBOURNE VIC 3000,Melbourne (CBD),Commercial,742,144.96805995219304,-37.80780089184999,"-37.80780089184999, 144.96805995219304",333-351 Exhibition Street,MELBOURNE,3000
18-38 Siddeley Street DOCKLANDS VIC 3008,Docklands,Commercial,290,144.95381592020982,-37.8227465515,"-37.8227465515, 144.95381592020982",18-38 Siddeley Street,DOCKLANDS,3008
Carpark Olympic Park 90 Olympic Boulevard MELBOURNE VIC 3004,Melbourne (Remainder),Commercial,154,144.98245598373953,-37.8248485699,"-37.8248485699, 144.98245598373953",Carpark Olympic Park 90 Olympic Boulevard,MELBOURNE,3004
71-75 Clarke Street SOUTHBANK VIC 3006,Southbank,Commercial,253,144.96007278099006,-37.8280003958,"-37.8280003958, 144.96007278099006",71-75 Clarke Street,SOUTHBANK,3006
Royal Melbourne Hospital 300-328 Grattan Street PARKVILLE VIC 3050,Parkville,Commercial,904,144.95634030020938,-37.7986314728,"-37.7986314728, 144.95634030020938",Royal Melbourne Hospital 300-328 Grattan Street,PARKVILLE,3050
Royal Childrens Hospital 48-50 Flemington Road PARKVILLE VIC 3052,Parkville,Commercial,2000,144.9495225654,-37.79363102715632,"-37.79363102715632, 144.9495225654",Royal Childrens Hospital 48-50 Flemington Road,PARKVILLE,3052
National@Docklands 788-812 Bourke Street DOCKLANDS VIC 3008,Docklands,Commercial,60,144.94507997263105,-37.8188510467,"-37.8188510467, 144.94507997263105",National@Docklands 788-812 Bourke Street,DOCKLANDS,3008
517-537 Flinders Lane MELBOURNE VIC 3000,Melbourne (CBD),Commercial,117,144.95648638781466,-37.8198754458,"-37.819875445799994, 144.95648638781466",517-537 Flinders Lane,MELBOURNE,3000
172-192 Flinders Street MELBOURNE VIC 3000,Melbourne (CBD),Commercial,895,144.96856313995937,-37.8166026714,"-37.8166026714, 144.96856313995937",172-192 Flinders Street,MELBOURNE,3000
327-343 Collins Street MELBOURNE VIC 3000,Melbourne (CBD),Commercial,169,144.9632685535,-37.817049064147554,"-37.817049064147554, 144.9632685535",327-343 Collins Street,MELBOURNE,3000
111-129 Bourke Street MELBOURNE VIC 3000,Melbourne (CBD),Commercial,398,144.97010937553796,-37.81281419155,"-37.81281419155, 144.97010937553796",111-129 Bourke Street,MELBOURNE,3000
392-406 Bourke Street MELBOURNE VIC 3000,Melbourne (CBD),Commercial,308,144.96173824055,-37.81422024016241,"-37.81422024016241, 144.96173824055",392-406 Bourke Street,MELBOURNE,3000
200-222 Queen Street MELBOURNE VIC 3000,Melbourne (CBD),Commercial,427,144.96047245985,-37.81345752336201,"-37.81345752336201, 144.96047245985",200-222 Queen Street,MELBOURNE,3000
196-226 Exhibition Street MELBOURNE VIC 3000,Melbourne (CBD),Commercial,479,144.97048167014998,-37.81047470300823,"-37.810474703008225, 144.97048167014998",196-226 Exhibition Street,MELBOURNE,3000
364-378 Little Lonsdale Street MELBOURNE VIC 3000,Melbourne (CBD),Commercial,107,144.95842621992747,-37.8120004369,"-37.8120004369, 144.95842621992747",364-378 Little Lonsdale Street,MELBOURNE,3000
452-468 Queen Street MELBOURNE VIC 3000,Melbourne (CBD),Commercial,507,144.9584857015114,-37.80786989635,"-37.80786989635, 144.9584857015114",452-468 Queen Street,MELBOURNE,3000
